IRIDIUM 63              
1 25286U 98021B   25346.00031307  .00000590  00000+0  19372-3 0  9995
2 25286  86.3984   7.5248 0002407  89.3636 270.7837 14.36734843449371
IRIDIUM 69              
1 25319U 98026A   25346.02062838  .00000791  00000+0  23898-3 0  9993
2 25319  86.3980  20.2428 0003921 126.2804 233.8758 14.41216739448675
IRIDIUM 71              
1 25320U 98026B   25346.00745111  .00000455  00000+0  13456-3 0  9991
2 25320  86.3979  14.9211 0001878 153.9390 206.1905 14.41317443449202
IRIDIUM 73              
1 25344U 98032C   25346.02078749  .00001077  00000+0  26173-3 0  9993
2 25344  86.4406 331.2945 0002932  94.5278 265.6262 14.51988462456367
IRIDIUM 82              
1 25467U 98051A   25345.35380425  .00070814  00000+0  13203-2 0  9996
2 25467  86.3613  21.8065 0060871 340.7983  19.0979 15.46478324451189
